[{"OBJECT_NAME":"STARLINK-1623","OBJECT_ID":"2020-057N","EPOCH":"2026-03-09T21:27:36.782208","MEAN_MOTION":15.52539688,"ECCENTRICITY":0.00071266,"INCLINATION":53.0504,"RA_OF_ASC_NODE":254.9883,"ARG_OF_PERICENTER":167.5624,"MEAN_ANOMALY":192.5562,"EPHEMERIS_TYPE":0,"CLASSIFICATION_TYPE":"U","NORAD_CAT_ID":46129,"ELEMENT_SET_NO":999,"REV_AT_EPOCH":30695,"BSTAR":0.0020334212,"MEAN_MOTION_DOT":0.00128626,"MEAN_MOTION_DDOT":0},{"OBJECT_NAME":"IRIDIUM 82","OBJECT_ID":"1998-051A","EPOCH":"2026-03-09T17:14:32.931744","MEAN_MOTION":15.58179803,"ECCENTRICITY":0.0047439,"INCLINATION":86.3594,"RA_OF_ASC_NODE":336.9899,"ARG_OF_PERICENTER":358.1791,"MEAN_ANOMALY":1.9292,"EPHEMERIS_TYPE":0,"CLASSIFICATION_TYPE":"U","NORAD_CAT_ID":25467,"ELEMENT_SET_NO":999,"REV_AT_EPOCH":46488,"BSTAR":0.0011204022,"MEAN_MOTION_DOT":0.00089782,"MEAN_MOTION_DDOT":0}]
